[{"OBJECT_NAME":"ONEWEB-0597","OBJECT_ID":"2022-166X","EPOCH":"2025-12-13T07:14:09.668256","MEAN_MOTION":13.21825164,"ECCENTRICITY":0.00018042,"INCLINATION":87.9222,"RA_OF_ASC_NODE":281.0684,"ARG_OF_PERICENTER":80.6938,"MEAN_ANOMALY":279.44,"EPHEMERIS_TYPE":0,"CLASSIFICATION_TYPE":"U","NORAD_CAT_ID":54663,"ELEMENT_SET_NO":999,"REV_AT_EPOCH":14698,"BSTAR":0.00018950862,"MEAN_MOTION_DOT":9.1e-7,"MEAN_MOTION_DDOT":0},{"OBJECT_NAME":"ONEWEB-0600","OBJECT_ID":"2022-166Y","EPOCH":"2025-12-13T06:48:05.135328","MEAN_MOTION":13.21825367,"ECCENTRICITY":0.00018825,"INCLINATION":87.9219,"RA_OF_ASC_NODE":281.063,"ARG_OF_PERICENTER":78.3994,"MEAN_ANOMALY":281.7351,"EPHEMERIS_TYPE":0,"CLASSIFICATION_TYPE":"U","NORAD_CAT_ID":54664,"ELEMENT_SET_NO":999,"REV_AT_EPOCH":14695,"BSTAR":0.00011881167,"MEAN_MOTION_DOT":6.2e-7,"MEAN_MOTION_DDOT":0},{"OBJECT_NAME":"ONEWEB-0601","OBJECT_ID":"2022-166Z","EPOCH":"2025-12-13T06:36:14.279328","MEAN_MOTION":13.21825589,"ECCENTRICITY":0.00018214,"INCLINATION":87.9217,"RA_OF_ASC_NODE":281.0828,"ARG_OF_PERICENTER":87.0766,"MEAN_ANOMALY":273.0577,"EPHEMERIS_TYPE":0,"CLASSIFICATION_TYPE":"U","NORAD_CAT_ID":54665,"ELEMENT_SET_NO":999,"REV_AT_EPOCH":14714,"BSTAR":9.1402906e-5,"MEAN_MOTION_DOT":5.1e-7,"MEAN_MOTION_DDOT":0},{"OBJECT_NAME":"ONEWEB-0602","OBJECT_ID":"2022-166AA","EPOCH":"2025-12-13T07:34:18.013728","MEAN_MOTION":13.21826898,"ECCENTRICITY":0.00021774,"INCLINATION":87.9225,"RA_OF_ASC_NODE":281.0786,"ARG_OF_PERICENTER":78.2019,"MEAN_ANOMALY":281.9359,"EPHEMERIS_TYPE":0,"CLASSIFICATION_TYPE":"U","NORAD_CAT_ID":54666,"ELEMENT_SET_NO":999,"REV_AT_EPOCH":14699,"BSTAR":0.00014926762,"MEAN_MOTION_DOT":7.5e-7,"MEAN_MOTION_DDOT":0},{"OBJECT_NAME":"ONEWEB-0603","OBJECT_ID":"2022-166AB","EPOCH":"2025-12-13T07:42:35.104032","MEAN_MOTION":13.21824468,"ECCENTRICITY":0.00018352,"INCLINATION":87.9228,"RA_OF_ASC_NODE":281.0165,"ARG_OF_PERICENTER":80.2547,"MEAN_ANOMALY":279.8794,"EPHEMERIS_TYPE":0,"CLASSIFICATION_TYPE":"U","NORAD_CAT_ID":54667,"ELEMENT_SET_NO":999,"REV_AT_EPOCH":14692,"BSTAR":0.00049776113,"MEAN_MOTION_DOT":2.19e-6,"MEAN_MOTION_DDOT":0},{"OBJECT_NAME":"ONEWEB-0604","OBJECT_ID":"2022-166AC","EPOCH":"2025-12-13T07:25:59.382048","MEAN_MOTION":13.2182333,"ECCENTRICITY":0.00018281,"INCLINATION":87.9224,"RA_OF_ASC_NODE":281.0386,"ARG_OF_PERICENTER":75.0331,"MEAN_ANOMALY":285.1005,"EPHEMERIS_TYPE":0,"CLASSIFICATION_TYPE":"U","NORAD_CAT_ID":54668,"ELEMENT_SET_NO":999,"REV_AT_EPOCH":14688,"BSTAR":0.0002418204,"MEAN_MOTION_DOT":1.13e-6,"MEAN_MOTION_DDOT":0},{"OBJECT_NAME":"ONEWEB-0605","OBJECT_ID":"2022-166AD","EPOCH":"2025-12-13T07:16:31.747872","MEAN_MOTION":13.21825128,"ECCENTRICITY":0.00016157,"INCLINATION":87.9218,"RA_OF_ASC_NODE":281.0677,"ARG_OF_PERICENTER":97.6981,"MEAN_ANOMALY":262.4336,"EPHEMERIS_TYPE":0,"CLASSIFICATION_TYPE":"U","NORAD_CAT_ID":54669,"ELEMENT_SET_NO":999,"REV_AT_EPOCH":14695,"BSTAR":0.00025413629,"MEAN_MOTION_DOT":1.18e-6,"MEAN_MOTION_DDOT":0},{"OBJECT_NAME":"ONEWEB-0606","OBJECT_ID":"2022-166AE","EPOCH":"2025-12-13T05:58:19.890048","MEAN_MOTION":13.21826317,"ECCENTRICITY":0.00016854,"INCLINATION":87.9222,"RA_OF_ASC_NODE":281.0898,"ARG_OF_PERICENTER":70.9916,"MEAN_ANOMALY":289.14,"EPHEMERIS_TYPE":0,"CLASSIFICATION_TYPE":"U","NORAD_CAT_ID":54670,"ELEMENT_SET_NO":999,"REV_AT_EPOCH":14700,"BSTAR":0.00022031719,"MEAN_MOTION_DOT":1.04e-6,"MEAN_MOTION_DDOT":0},{"OBJECT_NAME":"ONEWEB-0607","OBJECT_ID":"2022-166AF","EPOCH":"2025-12-13T06:59:56.315328","MEAN_MOTION":13.21825949,"ECCENTRICITY":0.00018957,"INCLINATION":87.9218,"RA_OF_ASC_NODE":281.045,"ARG_OF_PERICENTER":81.5674,"MEAN_ANOMALY":278.5675,"EPHEMERIS_TYPE":0,"CLASSIFICATION_TYPE":"U","NORAD_CAT_ID":54671,"ELEMENT_SET_NO":999,"REV_AT_EPOCH":14698,"BSTAR":1.7575583e-5,"MEAN_MOTION_DOT":2.0e-7,"MEAN_MOTION_DDOT":0},{"OBJECT_NAME":"ONEWEB-0608","OBJECT_ID":"2022-166AG","EPOCH":"2025-12-13T07:09:24.456672","MEAN_MOTION":13.21824937,"ECCENTRICITY":0.00018059,"INCLINATION":87.9226,"RA_OF_ASC_NODE":281.0314,"ARG_OF_PERICENTER":95.1473,"MEAN_ANOMALY":264.9867,"EPHEMERIS_TYPE":0,"CLASSIFICATION_TYPE":"U","NORAD_CAT_ID":54672,"ELEMENT_SET_NO":999,"REV_AT_EPOCH":14699,"BSTAR":0.00035792308,"MEAN_MOTION_DOT":1.61e-6,"MEAN_MOTION_DDOT":0},{"OBJECT_NAME":"ONEWEB-0610","OBJECT_ID":"2022-166AH","EPOCH":"2025-12-13T06:40:58.253664","MEAN_MOTION":13.2182478,"ECCENTRICITY":0.00018979,"INCLINATION":87.9215,"RA_OF_ASC_NODE":281.0685,"ARG_OF_PERICENTER":97.3653,"MEAN_ANOMALY":262.7697,"EPHEMERIS_TYPE":0,"CLASSIFICATION_TYPE":"U","NORAD_CAT_ID":54673,"ELEMENT_SET_NO":999,"REV_AT_EPOCH":14689,"BSTAR":2.2733394e-5,"MEAN_MOTION_DOT":2.2e-7,"MEAN_MOTION_DDOT":0},{"OBJECT_NAME":"ONEWEB-0611","OBJECT_ID":"2022-166AJ","EPOCH":"2025-12-13T06:31:30.004320","MEAN_MOTION":13.21827258,"ECCENTRICITY":0.00018312,"INCLINATION":87.9218,"RA_OF_ASC_NODE":281.0653,"ARG_OF_PERICENTER":69.4702,"MEAN_ANOMALY":290.6628,"EPHEMERIS_TYPE":0,"CLASSIFICATION_TYPE":"U","NORAD_CAT_ID":54674,"ELEMENT_SET_NO":999,"REV_AT_EPOCH":14688,"BSTAR":7.2376165e-5,"MEAN_MOTION_DOT":4.3e-7,"MEAN_MOTION_DDOT":0},{"OBJECT_NAME":"ONEWEB-0612","OBJECT_ID":"2022-166AK","EPOCH":"2025-12-13T06:50:27.182112","MEAN_MOTION":13.21825619,"ECCENTRICITY":0.00018165,"INCLINATION":87.9217,"RA_OF_ASC_NODE":281.0419,"ARG_OF_PERICENTER":81.2563,"MEAN_ANOMALY":278.8777,"EPHEMERIS_TYPE":0,"CLASSIFICATION_TYPE":"U","NORAD_CAT_ID":54675,"ELEMENT_SET_NO":999,"REV_AT_EPOCH":14687,"BSTAR":0.00015268555,"MEAN_MOTION_DOT":7.6e-7,"MEAN_MOTION_DDOT":0},{"OBJECT_NAME":"ONEWEB-0615","OBJECT_ID":"2022-166AL","EPOCH":"2025-12-13T06:22:01.594272","MEAN_MOTION":13.21826835,"ECCENTRICITY":0.00017853,"INCLINATION":87.922,"RA_OF_ASC_NODE":281.0729,"ARG_OF_PERICENTER":77.3437,"MEAN_ANOMALY":282.7897,"EPHEMERIS_TYPE":0,"CLASSIFICATION_TYPE":"U","NORAD_CAT_ID":54676,"ELEMENT_SET_NO":999,"REV_AT_EPOCH":14688,"BSTAR":0.00010671634,"MEAN_MOTION_DOT":5.7e-7,"MEAN_MOTION_DDOT":0},{"OBJECT_NAME":"ONEWEB-0655","OBJECT_ID":"2022-166AM","EPOCH":"2025-12-13T07:35:29.698080","MEAN_MOTION":13.21825904,"ECCENTRICITY":0.00020641,"INCLINATION":87.9221,"RA_OF_ASC_NODE":281.0665,"ARG_OF_PERICENTER":79.1484,"MEAN_ANOMALY":280.9883,"EPHEMERIS_TYPE":0,"CLASSIFICATION_TYPE":"U","NORAD_CAT_ID":54677,"ELEMENT_SET_NO":999,"REV_AT_EPOCH":14688,"BSTAR":0.00032349709,"MEAN_MOTION_DOT":1.47e-6,"MEAN_MOTION_DDOT":0},{"OBJECT_NAME":"ONEWEB-0659","OBJECT_ID":"2022-166AN","EPOCH":"2025-12-13T06:10:10.718400","MEAN_MOTION":13.21826441,"ECCENTRICITY":0.00017162,"INCLINATION":87.9218,"RA_OF_ASC_NODE":281.0784,"ARG_OF_PERICENTER":73.1429,"MEAN_ANOMALY":286.9893,"EPHEMERIS_TYPE":0,"CLASSIFICATION_TYPE":"U","NORAD_CAT_ID":54678,"ELEMENT_SET_NO":999,"REV_AT_EPOCH":14696,"BSTAR":8.1017068e-5,"MEAN_MOTION_DOT":4.6e-7,"MEAN_MOTION_DDOT":0}]
