ONEWEB-0597             
1 54663U 22166X   25347.30150079  .00000091  00000+0  18951-3 0  9993
2 54663  87.9222 281.0684 0001804  80.6938 279.4400 13.21825164146989
ONEWEB-0600             
1 54664U 22166Y   25347.28339277  .00000062  00000+0  11881-3 0  9993
2 54664  87.9219 281.0630 0001882  78.3994 281.7351 13.21825367146952
ONEWEB-0601             
1 54665U 22166Z   25347.27516527  .00000051  00000+0  91403-4 0  9995
2 54665  87.9217 281.0828 0001821  87.0766 273.0577 13.21825589147149
ONEWEB-0602             
1 54666U 22166AA  25347.31548627  .00000075  00000+0  14927-3 0  9998
2 54666  87.9225 281.0786 0002177  78.2019 281.9359 13.21826898146992
ONEWEB-0603             
1 54667U 22166AB  25347.32123963  .00000219  00000+0  49776-3 0  9992
2 54667  87.9228 281.0165 0001835  80.2547 279.8794 13.21824468146929
ONEWEB-0604             
1 54668U 22166AC  25347.30971507  .00000113  00000+0  24182-3 0  9993
2 54668  87.9224 281.0386 0001828  75.0331 285.1005 13.21823330146883
ONEWEB-0605             
1 54669U 22166AD  25347.30314523  .00000118  00000+0  25414-3 0  9997
2 54669  87.9218 281.0677 0001615  97.6981 262.4336 13.21825128146955
ONEWEB-0606             
1 54670U 22166AE  25347.24884132  .00000104  00000+0  22032-3 0  9998
2 54670  87.9222 281.0898 0001685  70.9916 289.1400 13.21826317147002
ONEWEB-0607             
1 54671U 22166AF  25347.29162402  .00000020  00000+0  17576-4 0  9998
2 54671  87.9218 281.0450 0001895  81.5674 278.5675 13.21825949146986
ONEWEB-0608             
1 54672U 22166AG  25347.29819973  .00000161  00000+0  35792-3 0  9996
2 54672  87.9226 281.0314 0001805  95.1473 264.9867 13.21824937146993
ONEWEB-0610             
1 54673U 22166AH  25347.27845201  .00000022  00000+0  22733-4 0  9996
2 54673  87.9215 281.0685 0001897  97.3653 262.7697 13.21824780146890
ONEWEB-0611             
1 54674U 22166AJ  25347.27187505  .00000043  00000+0  72376-4 0  9994
2 54674  87.9218 281.0653 0001831  69.4702 290.6628 13.21827258146888
ONEWEB-0612             
1 54675U 22166AK  25347.28503683  .00000076  00000+0  15269-3 0  9998
2 54675  87.9217 281.0419 0001816  81.2563 278.8777 13.21825619146879
ONEWEB-0615             
1 54676U 22166AL  25347.26529623  .00000057  00000+0  10672-3 0  9991
2 54676  87.9220 281.0729 0001785  77.3437 282.7897 13.21826835146888
ONEWEB-0655             
1 54677U 22166AM  25347.31631595  .00000147  00000+0  32350-3 0  9997
2 54677  87.9221 281.0665 0002064  79.1484 280.9883 13.21825904146883
ONEWEB-0659             
1 54678U 22166AN  25347.25706850  .00000046  00000+0  81017-4 0  9991
2 54678  87.9218 281.0784 0001716  73.1429 286.9893 13.21826441146961
